[29pschwassmannwachmann]
absolute_magnitude             = 4
albedo                         = 0.1
coord_func                     = comet_orbit
dust_brightnessfactor          = 1.5
dust_lengthfactor              = 0.40000000000000002
dust_widthfactor               = 1.5
name                           = 29P/Schwassmann-Wachmann
iau_designation                = P/1927 V1
orbit_ArgOfPericenter          = 51.1696
orbit_AscendingNode            = 312.3986
orbit_Eccentricity             = 0.044663
orbit_Epoch                    = 2460029.5
orbit_Inclination              = 9.3631
orbit_PericenterDistance       = 5.778267
orbit_TimeAtPericenter         = 2458596.6742
orbit_good                     = 1000
orbit_visualization_period     = 5389.287232495750
radius                         = 5
type                           = comet

[2I_Borisov]
absolute_magnitude             = 13.7
albedo                         = 0.1
coord_func                     = comet_orbit
dust_brightnessfactor          = 1.5
dust_lengthfactor              = 0.4
dust_widthfactor               = 1.5
name                           = 2I/2019 Q4 (Borisov)
iau_designation                = A/2019 Q4
orbit_ArgOfPericenter          = 210.6978
orbit_AscendingNode            = 307.5378
orbit_Eccentricity             = 3.079483
orbit_Epoch                    = 2458840.5
orbit_Inclination              = 44.678
orbit_PericenterDistance       = 1.940202
orbit_TimeAtPericenter         = 2458827.7323958334
orbit_good                     = 1000
radius                         = 10
slope_parameter                = 4.5
type                           = interstellar object

[2pallas]
absolute_magnitude             = 4.2
albedo                         = 0.101
color_index_bv                 = 0.635
coord_func                     = comet_orbit
minor_planet_number            = 2
name                           = Pallas
oblateness                     = 0.0
orbit_ArgOfPericenter          = 310.8648
orbit_AscendingNode            = 172.91814
orbit_Eccentricity             = 0.2300844
orbit_Epoch                    = 2460000.5
orbit_Inclination              = 34.92703
orbit_MeanAnomaly              = 357.84942
orbit_MeanMotion               = 0.21383118
orbit_SemiMajorAxis            = 2.7696317
orbit_visualization_period     = 1686.537085119438
radius                         = 272.5
rot_pole_de                    = -3
rot_pole_ra                    = 33
rot_pole_w0                    = 38
rot_pole_w1                    = 1105.8036
slope_parameter                = 0.11
spec_b                         = B
spec_t                         = B
discovery                      = 1802-03-28
discoverer                     = H.W. Olbers
type                           = asteroid

[2pencke]
absolute_magnitude             = 14.1
albedo                         = 0.046
coord_func                     = comet_orbit
dust_brightnessfactor          = 1.5
dust_lengthfactor              = 0.40000000000000002
dust_widthfactor               = 1.5
name                           = 2P/Encke
iau_designation                = P/1818 W1
orbit_ArgOfPericenter          = 187.2509
orbit_AscendingNode            = 334.0593
orbit_Eccentricity             = 0.847076
orbit_Epoch                    = 2460029.5
orbit_Inclination              = 11.3466
orbit_PericenterDistance       = 0.339397
orbit_TimeAtPericenter         = 2460239.9938
orbit_good                     = 35
orbit_visualization_period     = 1203.941171884973
radius                         = 5
slope_parameter                = 6
discovery                      = 1818-11-26
discoverer                     = J.L. Pons
type                           = comet

[3072612002ms4]
absolute_magnitude             = 3.7
albedo                         = 0.15
coord_func                     = comet_orbit
minor_planet_number            = 307261
name                           = 2002 MS4
orbit_ArgOfPericenter          = 212.91902
orbit_AscendingNode            = 216.25684
orbit_Eccentricity             = 0.145494
orbit_Epoch                    = 2460000.5
orbit_Inclination              = 17.71045
orbit_MeanAnomaly              = 228.71674
orbit_MeanMotion               = 0.00364156
orbit_SemiMajorAxis            = 41.8418576
orbit_visualization_period     = 98653.52761933634
radius                         = 625
discovery                      = 2002-06-18
discoverer                     = C.A. Trujillo, M.E. Brown
type                           = cubewano

[3119992007ns2]
absolute_magnitude             = 18.100000000000001
albedo                         = 0.14999999999999999
coord_func                     = comet_orbit
minor_planet_number            = 311999
name                           = 2007 NS2
orbit_ArgOfPericenter          = 176.89688000000001
orbit_AscendingNode            = 282.48653000000002
orbit_Eccentricity             = 0.054075600000000001
orbit_Epoch                    = 2457600.5
orbit_Inclination              = 18.619800000000001
orbit_MeanAnomaly              = 134.33313000000001
orbit_MeanMotion               = 0.52402402000000003
orbit_SemiMajorAxis            = 1.5237086
radius                         = 1
discovery                      = 2007-07-14
discoverer                     = OAM Observatory, La Sagra
type                           = asteroid

[3200phaethon]
absolute_magnitude             = 14.3
albedo                         = 0.1066
coord_func                     = comet_orbit
minor_planet_number            = 3200
name                           = Phaethon
iau_designation                = 1983 TB
orbit_ArgOfPericenter          = 322.21663
orbit_AscendingNode            = 265.17234
orbit_Eccentricity             = 0.8898954
orbit_Epoch                    = 2460000.5
orbit_Inclination              = 22.27354
orbit_MeanAnomaly              = 196.50612
orbit_MeanMotion               = 0.68755987
orbit_SemiMajorAxis            = 1.2713419
orbit_visualization_period     = 523.5184875226332
radius                         = 3.125
spec_b                         = B
spec_t                         = F
discovery                      = 1983-10-11
discoverer                     = IRAS
type                           = asteroid

[32pcomassola]
absolute_magnitude             = 6.5
albedo                         = 0.1
coord_func                     = comet_orbit
dust_brightnessfactor          = 1.5
dust_lengthfactor              = 0.40000000000000002
dust_widthfactor               = 1.5
name                           = 32P/Comas Sola
iau_designation                = P/1926 V1
orbit_ArgOfPericenter          = 54.762
orbit_AscendingNode            = 54.5746
orbit_Eccentricity             = 0.55667
orbit_Epoch                    = 2460021.5
orbit_Inclination              = 9.9105
orbit_PericenterDistance       = 2.020515
orbit_TimeAtPericenter         = 2460420.8854
orbit_good                     = 516
orbit_visualization_period     = 3491.319310301199
radius                         = 5
slope_parameter                = 8
type                           = comet

[3574392004bl86]
absolute_magnitude             = 19
albedo                         = 0.15
coord_func                     = comet_orbit
minor_planet_number            = 357439
name                           = 2004 BL86
orbit_ArgOfPericenter          = 311.5033
orbit_AscendingNode            = 126.6599
orbit_Eccentricity             = 0.4024244
orbit_Epoch                    = 2460000.5
orbit_Inclination              = 23.78188
orbit_MeanAnomaly              = 159.75803
orbit_MeanMotion               = 0.53525643
orbit_SemiMajorAxis            = 1.5023165
radius                         = 1
discovery                      = 2004-01-30
discoverer                     = LINEAR
type                           = asteroid

